OBJECT_NAME,OBJECT_ID,EPOCH,MEAN_MOTION,ECCENTRICITY,INCLINATION,RA_OF_ASC_NODE,ARG_OF_PERICENTER,MEAN_ANOMALY,EPHEMERIS_TYPE,CLASSIFICATION_TYPE,NORAD_CAT_ID,ELEMENT_SET_NO,REV_AT_EPOCH,BSTAR,MEAN_MOTION_DOT,MEAN_MOTION_DDOT
COSMOS 2251 DEB,1993-036JH,2025-02-16T21:45:46.415808,14.42988026,0.0083058,74.0387,206.9324,5.3432,118.4393,0,U,34046,999,83531,0.0024861,8.66e-05,0.0
COSMOS 2251 DEB,1993-036JM,2025-02-17T11:19:14.516256,13.9530946,0.0219712,74.0887,161.344,297.7914,178.1712,0,U,34050,999,81291,0.0011774,1.925e-05,0.0
COSMOS 2251 DEB,1993-036JQ,2025-02-16T21:29:09.999168,13.48684212,0.0426581,73.8462,3.5759,202.2731,155.9356,0,U,34053,999,78687,0.00048177,5.04e-06,0.0
COSMOS 2251 DEB,1993-036JR,2025-02-17T07:23:16.428192,15.10646054,0.0024045,74.0139,114.7969,311.2056,119.7925,0,U,34054,999,85024,0.0057134,0.00096395,0.0
COSMOS 2251 DEB,1993-036JT,2025-02-17T01:04:33.254112,14.18080947,0.0129692,74.0591,249.4012,11.3981,147.6305,0,U,34056,999,82190,0.0022241,4.935e-05,0.0
COSMOS 2251 DEB,1993-036JU,2025-02-17T10:04:36.509664,15.05721046,0.0026065,74.0143,163.82,345.5666,77.5376,0,U,34057,999,84832,0.0086296,0.0012803,0.0
COSMOS 2251 DEB,1993-036JV,2025-02-17T10:32:45.932064,13.55682948,0.0377696,73.9358,301.4911,353.0723,181.0978,0,U,34058,999,79112,0.0012037,1.303e-05,0.0
COSMOS 2251 DEB,1993-036JW,2025-02-17T04:53:16.522944,14.50308689,0.0019767,74.0413,28.3407,190.2952,181.4912,0,U,34059,999,84126,0.0016381,6.38e-05,0.0
COSMOS 2251 DEB,1993-036JY,2025-02-16T21:07:10.208064,14.39486897,0.0022283,74.0378,95.4556,252.2856,281.1664,0,U,34061,999,83878,0.00055301,1.702e-05,0.0
COSMOS 2251 DEB,1993-036JZ,2025-02-16T22:55:28.928352,14.68428682,0.0090807,74.035,0.7067,159.5236,264.7341,0,U,34062,999,84195,0.0032571,0.00020096,0.0
COSMOS 2251 DEB,1993-036KB,2025-02-16T14:43:58.379232,14.4097179,0.0024255,74.032,105.2296,251.9844,235.5451,0,U,34064,999,83845,0.00084829,2.709e-05,0.0
COSMOS 2251 DEB,1993-036KC,2025-02-16T20:47:51.914112,14.37636259,0.0018108,74.034,88.4669,264.48,268.7361,0,U,34065,999,83909,0.0002643,7.69e-06,0.0
COSMOS 2251 DEB,1993-036KH,2025-02-16T20:56:58.643808,14.66996447,0.0027317,74.0074,338.7974,173.1702,244.2619,0,U,34070,999,84213,0.0034796,0.00019634,0.0
COSMOS 2251 DEB,1993-036KK,2025-02-16T23:22:48.851328,14.49783329,0.005028,74.0596,247.0272,323.1415,159.2387,0,U,34114,999,83461,0.0035779,0.00014019,0.0
COSMOS 2251 DEB,1993-036KL,2025-02-16T21:11:37.309344,14.7314485,0.0035521,74.0085,108.3614,2.5172,357.6172,0,U,34115,999,85001,0.0018725,0.00012179,0.0
COSMOS 2251 DEB,1993-036KM,2025-02-16T15:59:28.849632,14.50393868,0.0012891,74.044,25.8037,191.1948,342.1012,0,U,34116,999,84146,0.0016253,6.332e-05,0.0
COSMOS 2251 DEB,1993-036KN,2025-02-16T18:32:55.468608,14.38389085,0.0059105,74.041,175.4892,326.6639,33.0798,0,U,34117,999,83822,0.001278,3.951e-05,0.0
COSMOS 2251 DEB,1993-036KP,2025-02-16T15:18:39.593664,14.80166849,0.0082181,73.9569,128.0682,26.7808,97.6381,0,U,34118,999,84730,0.0024901,0.00020059,0.0
COSMOS 2251 DEB,1993-036KR,2025-02-16T22:02:05.963712,13.98209763,0.0185567,73.9938,13.6487,266.5557,154.7231,0,U,34120,999,81803,0.00065143,1.049e-05,0.0
COSMOS 2251 DEB,1993-036KS,2025-02-17T12:41:26.697408,13.90077253,0.0243018,73.9911,247.4753,157.1368,234.7755,0,U,34121,999,80999,0.0038124,5.953e-05,0.0
COSMOS 2251 DEB,1993-036KT,2025-02-16T19:52:09.487776,14.5996025,0.0091938,74.0412,331.5817,303.2116,111.9482,0,U,34122,999,84314,0.0025093,0.00012758,0.0
COSMOS 2251 DEB,1993-036KX,2025-02-17T10:50:52.076832,15.38616334,0.0021859,73.9775,221.1486,104.1975,256.1662,0,U,34126,999,85789,0.0063511,0.00252268,0.0
COSMOS 2251 DEB,1993-036KY,2025-02-16T21:13:54.655104,14.27542039,0.012062,74.1806,222.319,144.1709,333.8612,0,U,34127,999,82533,0.0039723,0.00010545,0.0
COSMOS 2251 DEB,1993-036KZ,2025-02-17T09:49:04.090368,14.82935184,0.0044118,74.0038,176.3929,11.1619,44.6654,0,U,34128,999,84750,0.0047705,0.00039571,0.0
COSMOS 2251 DEB,1993-036LA,2025-02-16T20:14:21.704928,14.69296904,0.003812,74.0385,201.4731,3.0622,357.0774,0,U,34129,999,56898,0.0024946,0.00014889,0.0
COSMOS 2251 DEB,1993-036LH,2025-02-16T20:38:21.464160,14.77009292,0.0091046,74.0185,270.6705,110.2915,261.8795,0,U,34136,999,85593,0.00077467,5.819e-05,0.0
COSMOS 2251 DEB,1993-036LL,2025-02-17T04:37:16.212000,14.53623839,0.0049768,74.0314,100.6845,252.6036,163.6737,0,U,34139,999,83816,0.0023533,9.989e-05,0.0
COSMOS 2251 DEB,1993-036LN,2025-02-17T13:34:33.017088,14.44645409,0.005564,74.011,226.9384,26.3573,37.0782,0,U,34141,999,83381,0.003009,0.00010611,0.0
COSMOS 2251 DEB,1993-036LQ,2025-02-16T20:03:25.417440,14.62359819,0.0052414,74.0127,161.423,26.6857,333.6988,0,U,34270,999,84722,0.0014238,7.316e-05,0.0
COSMOS 2251 DEB,1993-036LR,2025-02-16T19:00:55.487232,14.61980243,0.0022714,74.0242,56.173,202.4473,330.861,0,U,34271,999,83852,0.0030251,0.00015222,0.0
COSMOS 2251 DEB,1993-036LT,2025-02-17T03:36:18.149184,14.57737346,0.0016123,74.0374,296.7919,139.2063,349.0916,0,U,34273,999,84282,0.0016584,7.569e-05,0.0
COSMOS 2251 DEB,1993-036LU,2025-02-16T17:04:06.231936,14.60183093,0.0025528,74.0051,282.6261,144.5019,272.5333,0,U,34274,999,84304,0.0017542,8.471e-05,0.0
COSMOS 2251 DEB,1993-036LV,2025-02-17T12:14:38.262912,15.06409885,0.0009124,74.0098,252.8232,125.8692,234.3347,0,U,34275,999,84450,0.008143,0.00122195,0.0
COSMOS 2251 DEB,1993-036LW,2025-02-16T22:38:50.323200,14.54624492,0.0024086,74.0243,292.2707,153.1054,218.541,0,U,34276,999,84244,0.0012866,5.494e-05,0.0
COSMOS 2251 DEB,1993-036MT,2025-02-16T22:49:45.382944,14.36287203,0.0018698,74.0477,112.7537,260.9813,272.6216,0,U,34297,999,83774,0.00025143,7.1e-06,0.0
COSMOS 2251 DEB,1993-036MV,2025-02-16T21:29:06.196704,14.98378518,0.0105427,74.0046,241.94,51.7444,309.317,0,U,34299,999,84488,0.0042779,0.00057657,0.0
COSMOS 2251 DEB,1993-036MW,2025-02-17T08:02:23.905824,15.13256599,0.004987,73.9948,276.9135,103.0139,257.6629,0,U,34300,999,84374,0.0088188,0.00165217,0.0
COSMOS 2251 DEB,1993-036MX,2025-02-17T01:37:26.762304,14.70452488,0.0017534,74.013,33.466,193.3172,234.6211,0,U,34301,999,84017,0.0048292,0.0002943,0.0
COSMOS 2251 DEB,1993-036MY,2025-02-17T04:33:35.219808,14.37139818,0.0082456,74.1817,309.0166,247.6934,238.58,0,U,34302,999,83428,0.0015063,4.633e-05,0.0
COSMOS 2251 DEB,1993-036MZ,2025-02-17T11:25:47.377920,14.4946036,0.0150867,74.0076,131.2928,341.1706,30.0471,0,U,34303,999,83649,0.0023352,0.00010327,0.0
COSMOS 2251 DEB,1993-036NA,2025-02-17T11:24:42.211584,14.34650747,0.0136393,74.0158,311.3241,160.457,12.7581,0,U,34304,999,83033,0.0016897,5.284e-05,0.0
COSMOS 2251 DEB,1993-036ND,2025-02-16T19:26:20.773824,13.53473991,0.039616,74.0519,72.4762,327.7971,210.0117,0,U,34307,999,78816,0.0015787,1.723e-05,0.0
COSMOS 2251 DEB,1993-036NK,2025-02-16T19:28:11.629344,14.87584393,0.0031296,73.9887,195.856,51.4286,308.969,0,U,34313,999,84580,0.0049346,0.00045504,0.0
COSMOS 2251 DEB,1993-036NL,2025-02-17T11:17:46.203360,14.16482828,0.0107763,74.0052,120.2642,294.8629,75.3928,0,U,34314,999,82446,0.00089446,1.858e-05,0.0
COSMOS 2251 DEB,1993-036NN,2025-02-16T20:04:34.597920,14.79348744,0.0013336,74.0694,209.945,40.1177,320.0981,0,U,34316,999,84770,0.0036575,0.00027367,0.0
COSMOS 2251 DEB,1993-036NP,2025-02-17T07:59:06.014400,13.64577123,0.0338537,73.9266,166.817,213.2986,181.983,0,U,34317,999,79588,0.0020947,2.462e-05,0.0
COSMOS 2251 DEB,1993-036NT,2025-02-16T22:49:49.389312,14.48347896,0.0017128,74.0325,356.9966,205.9005,218.0699,0,U,34321,999,84158,0.0012309,4.589e-05,0.0
COSMOS 2251 DEB,1993-036NV,2025-02-16T23:20:26.844288,14.65324292,0.0069244,73.96,345.0978,102.7922,337.6032,0,U,34323,999,84050,0.0038716,0.00021687,0.0
COSMOS 2251 DEB,1993-036NX,2025-02-16T14:26:45.342816,14.02476834,0.0193835,73.875,359.0757,73.4932,98.038,0,U,34325,999,81354,0.0031435,5.683e-05,0.0
COSMOS 2251 DEB,1993-036NZ,2025-02-16T10:34:48.855936,14.803433,0.0043081,73.9982,47.436,297.4866,192.0,0,U,34327,999,85128,0.0027133,0.00021056,0.0
COSMOS 2251 DEB,1993-036PN,2025-02-17T03:48:44.032608,13.78545108,0.0298083,74.0767,86.3445,264.0332,152.386,0,U,34340,999,80167,0.0021399,2.995e-05,0.0
COSMOS 2251 DEB,1993-036PQ,2025-02-17T09:44:08.814048,15.19319599,0.0030622,74.1613,40.3553,73.8226,41.6664,0,U,34342,999,85575,0.0053795,0.00116834,0.0
COSMOS 2251 DEB,1993-036PR,2025-02-17T10:03:09.255168,14.63228711,0.0024069,74.0229,305.281,289.9637,185.9596,0,U,34343,999,84376,0.0027995,0.00014484,0.0
COSMOS 2251 DEB,1993-036PS,2025-02-16T17:48:02.681280,14.13514561,0.016265,73.9806,282.9047,172.7689,262.9688,0,U,34344,999,81867,0.0021667,4.606e-05,0.0
COSMOS 2251 DEB,1993-036PU,2025-02-16T13:28:10.671168,13.98026271,0.0213872,73.9943,110.7306,353.4465,124.197,0,U,34346,999,81226,0.0012153,2.073e-05,0.0
COSMOS 2251 DEB,1993-036PY,2025-02-17T11:42:16.859232,14.86236092,0.0012195,74.0279,180.9757,29.1502,49.4378,0,U,34383,999,84671,0.0058813,0.00052136,0.0
COSMOS 2251 DEB,1993-036QC,2025-02-16T17:49:00.451776,14.42860308,0.0040415,74.0413,47.2351,221.79,312.0864,0,U,34387,999,83867,0.00064511,2.149e-05,0.0
COSMOS 2251 DEB,1993-036QD,2025-02-16T19:08:45.506688,14.47089194,0.0014131,74.0392,62.8185,200.4093,333.0717,0,U,34388,999,83827,0.001299,4.715e-05,0.0
COSMOS 2251 DEB,1993-036QE,2025-02-17T04:58:22.601856,14.40436722,0.0031949,74.018,82.9249,270.1388,164.906,0,U,34389,999,83712,0.00074814,2.366e-05,0.0
COSMOS 2251 DEB,1993-036QF,2025-02-17T09:12:54.351360,14.99775135,0.0029689,74.0734,157.0624,229.0829,190.7957,0,U,34390,999,84804,0.0063112,0.00079611,0.0
COSMOS 2251 DEB,1993-036QM,2025-02-16T20:46:31.175904,14.65860846,0.0008146,74.0355,343.7952,138.5278,277.8842,0,U,34396,999,83954,0.0035409,0.00019379,0.0
COSMOS 2251 DEB,1993-036QR,2025-02-16T17:21:37.077984,15.03102961,0.0038902,73.9907,293.3441,164.9228,195.313,0,U,34400,999,85428,0.0027841,0.00038361,0.0
COSMOS 2251 DEB,1993-036QS,2025-02-17T09:32:23.827200,15.18616671,0.0029858,74.0278,148.3855,304.2125,128.2013,0,U,34401,999,84924,0.0071026,0.00151773,0.0
